$$SOE
2460154.500000000, A.D. 2023-Jul-29 00:00:00.0000, -1.275999047411871E+08, 4.730114083403705E+08, -3.132870522117195E+07,
2460161.500000000, A.D. 2023-Aug-05 00:00:00.0000, -1.345700399107990E+08, 4.719073615030380E+08, -3.070863503952402E+07,
2460168.500000000, A.D. 2023-Aug-12 00:00:00.0000, -1.414852219616974E+08, 4.706105435199690E+08, -3.007601892888382E+07,
2460175.500000000, A.D. 2023-Aug-19 00:00:00.0000, -1.483428602485782E+08, 4.691222531102826E+08, -2.943116447940898E+07,
2460182.500000000, A.D. 2023-Aug-26 00:00:00.0000, -1.551403719114239E+08, 4.674437421623858E+08, -2.877437467793927E+07,
2460189.500000000, A.D. 2023-Sep-02 00:00:00.0000, -1.618751780215925E+08, 4.655762173123536E+08, -2.810594833314759E+07,
2460196.500000000, A.D. 2023-Sep-09 00:00:00.0000, -1.685446997799139E+08, 4.635208413786228E+08, -2.742618050438026E+07,
2460203.500000000, A.D. 2023-Sep-16 00:00:00.0000, -1.751463545841734E+08, 4.612787345989548E+08, -2.673536295572886E+07,
2460210.500000000, A.D. 2023-Sep-23 00:00:00.0000, -1.816775515360284E+08, 4.588509759605948E+08, -2.603378465141121E+07,
2460217.500000000, A.D. 2023-Sep-30 00:00:00.0000, -1.881356867141204E+08, 4.562386058192910E+08, -2.532173216539904E+07,
2460224.500000000, A.D. 2023-Oct-07 00:00:00.0000, -1.945181405539382E+08, 4.534426292702556E+08, -2.459948983525243E+07,
2460231.500000000, A.D. 2023-Oct-14 00:00:00.0000, -2.008222762802348E+08, 4.504640169620327E+08, -2.386734002737898E+07,
2460238.500000000, A.D. 2023-Oct-21 00:00:00.0000, -2.070454361512639E+08, 4.473037049594538E+08, -2.312556367978734E+07,
2460245.500000000, A.D. 2023-Oct-28 00:00:00.0000, -2.131849369280036E+08, 4.439625959228033E+08, -2.237444080847672E+07,
2460252.500000000, A.D. 2023-Nov-04 00:00:00.0000, -2.192380658051547E+08, 4.404415608402200E+08, -2.161425092723727E+07,
2460259.500000000, A.D. 2023-Nov-11 00:00:00.0000, -2.252020766123698E+08, 4.367414407197651E+08, -2.084527344739702E+07,
2460266.500000000, A.D. 2023-Nov-18 00:00:00.0000, -2.310741860520557E+08, 4.328630481829910E+08, -2.006778808411071E+07,
2460273.500000000, A.D. 2023-Nov-25 00:00:00.0000, -2.368515698864802E+08, 4.288071689886230E+08, -1.928207527525881E+07,
2460280.500000000, A.D. 2023-Dec-02 00:00:00.0000, -2.425313590316939E+08, 4.245745634811615E+08, -1.848841661775610E+07,
2460287.500000000, A.D. 2023-Dec-09 00:00:00.0000, -2.481106354667321E+08, 4.201659679121767E+08, -1.768709533471239E+07,
2460294.500000000, A.D. 2023-Dec-16 00:00:00.0000, -2.535864276572641E+08, 4.155820956552055E+08, -1.687839680060604E+07,
2460301.500000000, A.D. 2023-Dec-23 00:00:00.0000, -2.589557051317096E+08, 4.108236390121976E+08, -1.606260910243529E+07,
2460308.500000000, A.D. 2023-Dec-30 00:00:00.0000, -2.642153735355777E+08, 4.058912726737397E+08, -1.524002343074998E+07,
2460315.500000000, A.D. 2024-Jan-06 00:00:00.0000, -2.693622719192221E+08, 4.007856564868985E+08, -1.441093433368881E+07,
2460322.500000000, A.D. 2024-Jan-13 00:00:00.0000, -2.743931690658390E+08, 3.955074357362851E+08, -1.357564027515088E+07,
2460329.500000000, A.D. 2024-Jan-20 00:00:00.0000, -2.793047576168907E+08, 3.900572420352997E+08, -1.273444435985504E+07,
2460336.500000000, A.D. 2024-Jan-27 00:00:00.0000, -2.840936480041991E+08, 3.844356954959099E+08, -1.188765498913817E+07,
2460343.500000000, A.D. 2024-Feb-03 00:00:00.0000, -2.887563625948389E+08, 3.786434072455605E+08, -1.103558648906156E+07,
2460350.500000000, A.D. 2024-Feb-10 00:00:00.0000, -2.932893297480029E+08, 3.726809820178348E+08, -1.017855976348998E+07,
2460357.500000000, A.D. 2024-Feb-17 00:00:00.0000, -2.976888776210507E+08, 3.665490208446389E+08, -9.316902987970367E+06,
2460364.500000000, A.D. 2024-Feb-24 00:00:00.0000, -3.019512276636271E+08, 3.602481238875414E+08, -8.450952350633189E+06,
2460371.500000000, A.D. 2024-Mar-02 00:00:00.0000, -3.060724877436393E+08, 3.537788934019607E+08, -7.581052849977434E+06,
2460378.500000000, A.D. 2024-Mar-09 00:00:00.0000, -3.100486447372125E+08, 3.471419368010918E+08, -6.707559172312841E+06,
2460385.500000000, A.D. 2024-Mar-16 00:00:00.0000, -3.138755561556960E+08, 3.403378700501583E+08, -5.830836674312159E+06,
2460392.500000000, A.D. 2024-Mar-23 00:00:00.0000, -3.175489408793579E+08, 3.333673225372887E+08, -4.951262376371861E+06,
2460399.500000000, A.D. 2024-Mar-30 00:00:00.0000, -3.210643712029395E+08, 3.262309434369614E+08, -4.069225769946143E+06,
2460406.500000000, A.D. 2024-Apr-06 00:00:00.0000, -3.244172658964508E+08, 3.189294062469119E+08, -3.185129744688332E+06,
2460413.500000000, A.D. 2024-Apr-13 00:00:00.0000, -3.276028806843469E+08, 3.114634123861018E+08, -2.299391900230765E+06,
2460420.500000000, A.D. 2024-Apr-20 00:00:00.0000, -3.306162970493997E+08, 3.038336965877979E+08, -1.412445945014060E+06,
2460427.500000000, A.D. 2024-Apr-27 00:00:00.0000, -3.334524108299592E+08, 2.960410335946583E+08, -5.247430986649394E+05,
2460434.500000000, A.D. 2024-May-04 00:00:00.0000, -3.361059204686049E+08, 2.880862455296690E+08, 3.632464258806109E+05,
2460441.500000000, A.D. 2024-May-11 00:00:00.0000, -3.385713146152056E+08, 2.799702099276386E+08, 1.251031818631649E+06,
2460448.500000000, A.D. 2024-May-18 00:00:00.0000, -3.408428589397231E+08, 2.716938685470959E+08, 2.138099928393126E+06,
2460455.500000000, A.D. 2024-May-25 00:00:00.0000, -3.429145820629165E+08, 2.632582370675129E+08, 3.023913360817075E+06,
2460462.500000000, A.D. 2024-Jun-01 00:00:00.0000, -3.447802604731527E+08, 2.546644157422833E+08, 3.907908392225355E+06,
2460469.500000000, A.D. 2024-Jun-08 00:00:00.0000, -3.464334021059214E+08, 2.459136011304885E+08, 4.789492656567097E+06,
2460476.500000000, A.D. 2024-Jun-15 00:00:00.0000, -3.478672281044539E+08, 2.370070996192398E+08, 5.668042593067303E+06,
2460483.500000000, A.D. 2024-Jun-22 00:00:00.0000, -3.490746536805325E+08, 2.279463441027291E+08, 6.542900819909051E+06,
2460490.500000000, A.D. 2024-Jun-29 00:00:00.0000, -3.500482701079902E+08, 2.187329122183081E+08, 7.413373453881770E+06,
2460497.500000000, A.D. 2024-Jul-06 00:00:00.0000, -3.507803251077589E+08, 2.093685439243970E+08, 8.278726902505651E+06,
2460504.500000000, A.D. 2024-Jul-13 00:00:00.0000, -3.512626995713902E+08, 1.998551615352275E+08, 9.138184148349911E+06,
2460511.500000000, A.D. 2024-Jul-20 00:00:00.0000, -3.514868825051543E+08, 1.901948936959451E+08, 9.990920764849827E+06,
2460518.500000000, A.D. 2024-Jul-27 00:00:00.0000, -3.514439447458130E+08, 1.803901027286707E+08, 1.083606060383030E+07,
2460525.500000000, A.D. 2024-Aug-03 00:00:00.0000, -3.511245110671908E+08, 1.704434154238282E+08, 1.167267105243257E+07,
2460532.500000000, A.D. 2024-Aug-10 00:00:00.0000, -3.505187304082184E+08, 1.603577577888512E+08, 1.249975779135314E+07,
2460539.500000000, A.D. 2024-Aug-17 00:00:00.0000, -3.496162440847991E+08, 1.501363943750016E+08, 1.331625899257179E+07,
2460546.500000000, A.D. 2024-Aug-24 00:00:00.0000, -3.484061518868421E+08, 1.397829728596289E+08, 1.412103888549356E+07,
2460553.500000000, A.D. 2024-Aug-31 00:00:00.0000, -3.468769758987194E+08, 1.293015746405652E+08, 1.491288060105664E+07,
2460560.500000000, A.D. 2024-Sep-07 00:00:00.0000, -3.450166216644554E+08, 1.186967725236581E+08, 1.569047818689654E+07,
2460567.500000000, A.D. 2024-Sep-14 00:00:00.0000, -3.428123366470011E+08, 1.079736976106629E+08, 1.645242777364997E+07,
2460574.500000000, A.D. 2024-Sep-21 00:00:00.0000, -3.402506681165860E+08, 9.713811709382260E+07, 1.719721800805690E+07,
2460581.500000000, A.D. 2024-Sep-28 00:00:00.0000, -3.373174211648087E+08, 8.619652124003282E+07, 1.792321941847799E+07,
2460588.500000000, A.D. 2024-Oct-05 00:00:00.0000, -3.339976135169694E+08, 7.515622133213228E+07, 1.862867224983154E+07,
2460595.500000000, A.D. 2024-Oct-12 00:00:00.0000, -3.302754280226946E+08, 6.402546360233907E+07, 1.931167290653639E+07,
2460602.500000000, A.D. 2024-Oct-19 00:00:00.0000, -3.261341653502404E+08, 5.281356127631503E+07, 1.997015899285472E+07,
2460609.500000000, A.D. 2024-Oct-26 00:00:00.0000, -3.215561980332978E+08, 4.153104670960064E+07, 2.060189273067973E+07,
2460616.500000000, A.D. 2024-Nov-02 00:00:00.0000, -3.165229271751055E+08, 3.018984669768255E+07, 2.120444255732496E+07,
2460623.500000000, A.D. 2024-Nov-09 00:00:00.0000, -3.110147438692631E+08, 1.880348470608982E+07, 2.177516273635517E+07,
2460630.500000000, A.D. 2024-Nov-16 00:00:00.0000, -3.050109982588763E+08, 7.387314291359998E+06, 2.231117083158334E+07,
2460637.500000000, A.D. 2024-Nov-23 00:00:00.0000, -2.984899801819209E+08, -4.041211485146301E+06, 2.280932291678656E+07,
2460644.500000000, A.D. 2024-Nov-30 00:00:00.0000, -2.914289165680357E+08, -1.546222925163132E+07, 2.326618643225489E+07,
2460651.500000000, A.D. 2024-Dec-07 00:00:00.0000, -2.838039923471763E+08, -2.685310671808973E+07, 2.367801070636418E+07,
2460658.500000000, A.D. 2024-Dec-14 00:00:00.0000, -2.755904050920488E+08, -3.818802863129923E+07, 2.404069546815510E+07,
2460665.500000000, A.D. 2024-Dec-21 00:00:00.0000, -2.667624682948351E+08, -4.943752196629903E+07, 2.434975784023176E+07,
2460672.500000000, A.D. 2024-Dec-28 00:00:00.0000, -2.572937778023027E+08, -6.056791707602417E+07, 2.460029808884215E+07,
2460679.500000000, A.D. 2025-Jan-04 00:00:00.0000, -2.471574602508634E+08, -7.154073729762466E+07, 2.478696525809592E+07,
2460686.500000000, A.D. 2025-Jan-11 00:00:00.0000, -2.363265328781087E+08, -8.231201264993311E+07, 2.490392483278786E+07,
2460693.500000000, A.D. 2025-Jan-18 00:00:00.0000, -2.247744105830361E+08, -9.283152028790703E+07, 2.494483121998528E+07,
2460700.500000000, A.D. 2025-Jan-25 00:00:00.0000, -2.124756035716276E+08, -1.030419614233255E+08, 2.490280906404554E+07,
2460707.500000000, A.D. 2025-Feb-01 00:00:00.0000, -1.994066583852203E+08, -1.128780958514881E+08, 2.477044918837057E+07,
2460714.500000000, A.D. 2025-Feb-08 00:00:00.0000, -1.855474043719825E+08, -1.222658732084056E+08, 2.453982722242260E+07,
2460721.500000000, A.D. 2025-Feb-15 00:00:00.0000, -1.708825744919012E+08, -1.311216263874427E+08, 2.420255575557446E+07,
$$EOE